{
  "type": "FeatureCollection",
  "generator": "smartcity",
  "copyright": "Smartcity",
  "timestamp": "2021-05-27T09:28:58Z",
  "features": [
    {
      "type": "Feature",
      "properties": {
        "Building name": "Landmark Plus",
        "height": 1.84,
        "idb": "7"
      },
      "geometry": {
        "type": "Polygon",
        "coordinates": [
          [
            [106.6950899245909, 10.7773276062203, 0], 
            [106.6951994726627, 10.7774484281895, 0], 
            [106.695779189925, 10.7769228043421, 0],
            [106.6956696418532, 10.7768019823729, 0],
            [106.6950899245909, 10.7773276062203, 0]
          ]
        ]
      },
      "id": "pp7"
    }
  ]
}
