{
  "type": "FeatureCollection",
  "generator": "smartcity",
  "copyright": "Smartcity",
  "timestamp": "2021-05-27T09:28:58Z",
  "features": [
    {
      "type": "Feature",
      "properties": {
        "Building name": "Landmark Plus",
        "height": 1.84,
        "idb": "7"
      },
      "geometry": {
        "type": "Polygon",
        "coordinates": [
          [
            [106.6953410736756, 10.7771261758949, 30.35301],  
            [106.6953454245919, 10.7771309745761, 30.35301], 
            [106.6951400274094, 10.7773172061486, 30.35301],
            [106.6951356764931, 10.7773124074674, 30.35301],
            [106.6953410736756, 10.7771261758949, 30.35301]
          ]
        ]
      },
      "id": "pp7"
    }
  ]
}