{
  "type": "FeatureCollection",
  "generator": "smartcity",
  "copyright": "Smartcity",
  "timestamp": "2021-05-27T09:28:58Z",
  "features": [
    {
      "type": "Feature",
      "properties": {
        "Building name": "Landmark Plus",
        "height": 1.84,
        "idb": "7"
      },
      "geometry": {
        "type": "Polygon",
        "coordinates": [
          [
            [106.6951799855623, 10.7772722328772, 33.14137],  
            [106.6951232703373, 10.7773236560048, 33.14137], 
            [106.6951845752293, 10.7773912699541, 33.14137],
            [106.6952412904543, 10.7773398468265, 33.14137],
            [106.6951799855623, 10.7772722328772, 33.14137]
          ]
        ]
      },
      "id": "pp7"
    }
  ]
}