{
  "type": "FeatureCollection",
  "generator": "smartcity",
  "copyright": "Smartcity",
  "timestamp": "2021-05-27T09:28:58Z",
  "features": [
    {
      "type": "Feature",
      "properties": {
        "Building name": "Landmark Plus",
        "height": 1.84,
        "idb": "7"
      },
      "geometry": {
        "type": "Polygon",
        "coordinates": [
          [
            [106.6954118628606, 10.7772042490784, 30.35301],  
            [106.695419855822, 10.7771970019402, 30.35301], 
            [106.6953490635455, 10.7771189242332, 30.35301],
            [106.6953410705841, 10.7771261713714, 30.35301],
            [106.6954118628606, 10.7772042490784, 30.35301]
          ]
        ]
      },
      "id": "pp7"
    }
  ]
}