{
  "type": "FeatureCollection",
  "generator": "smartcity",
  "copyright": "Smartcity",
  "timestamp": "2021-05-27T09:28:58Z",
  "features": [
    {
      "type": "Feature",
      "properties": {
        "Building name": "Landmark Plus",
        "height": 1.84,
        "idb": "7"
      },
      "geometry": {
        "type": "Polygon",
        "coordinates": [
          [
            [106.6955021208198, 10.7771117182636, 30.35301], 
            [106.6954787011027, 10.777132952687, 30.35301], 
            [106.6954132270407, 10.7770607405068, 30.35301],
            [106.6954366467578, 10.7770395060834, 30.35301],
            [106.6955021208198, 10.7771117182636, 30.35301]
          ]
        ]
      },
      "id": "pp7"
    }
  ]
}