{
  "type": "FeatureCollection",
  "generator": "smartcity",
  "copyright": "Smartcity",
  "timestamp": "2021-05-27T09:28:58Z",
  "features": [
    {
      "type": "Feature",
      "properties": {
        "Building name": "Landmark Plus",
        "height": 1.84,
        "idb": "7"
      },
      "geometry": {
        "type": "Polygon",
        "coordinates": [
          [
            [106.6954145376075, 10.7771911364133, 30.35301],  
            [106.6954379573246, 10.7771699019899, 30.35301], 
            [106.6953724832626, 10.7770976898098, 30.35301],
            [106.6953490635455, 10.7771189242332, 30.35301],
            [106.6954145376075, 10.7771911364133, 30.35301]
          ]
        ]
      },
      "id": "pp7"
    }
  ]
}