{
  "type": "FeatureCollection",
  "generator": "smartcity",
  "copyright": "Smartcity",
  "timestamp": "2021-05-27T09:28:58Z",
  "features": [
    {
      "type": "Feature",
      "properties": {
        "Building name": "Landmark Plus",
        "height": 1.84,
        "idb": "7"
      },
      "geometry": {
        "type": "Polygon",
        "coordinates": [
          [
            [106.6955632890375, 10.777169364053, 8.8],
            [106.6954739194281, 10.7772503945845, 8.8],
            [106.6955216346697, 10.7773030308272, 8.8],
            [106.6956110042514, 10.7772220003208, 8.8],
            [106.6955632890375, 10.777169364053, 8.8]
          ]
        ]
      },
      "id": "lct1"
    }
  ]
}
