{
  "type": "FeatureCollection",
  "generator": "smartcity",
  "copyright": "Smartcity",
  "timestamp": "2021-05-27T09:28:58Z",
  "features": [
    {
      "type": "Feature",
      "properties": {
        "Building name": "Landmark Plus",
        "height": 1.84,
        "idb": "7"
      },
      "geometry": {
        "type": "Polygon",
        "coordinates": [
          [
            [106.6955632890375, 10.777169364053, 9],
            [106.6954739194281, 10.7772503945845, 9],
            [106.6955187198883, 10.7772998160776, 9],
            [106.6956080894702, 10.7772187855712, 9],
            [106.6955632890375, 10.777169364053, 9]
          ]
        ]
      },
      "id": "lct1"
    }
  ]
}
