{
  "type": "FeatureCollection",
  "generator": "smartcity",
  "copyright": "Smartcity",
  "timestamp": "2021-05-27T09:28:58Z",
  "features": [
    {
      "type": "Feature",
      "properties": {
        "Building name": "Landmark Plus",
        "height": 1.84,
        "idb": "7"
      },
      "geometry": {
        "type": "Polygon",
        "coordinates": [
          [
            [106.6955632890375, 10.777169364053, 10],
            [106.6954739194281, 10.7772503945845, 10],
            [106.695504104745, 10.7772836988991, 10],
            [106.6955934743488, 10.7772026683745, 10],
            [106.6955632890375, 10.777169364053, 10]
          ]
        ]
      },
      "id": "lct1"
    }
  ]
}
