{
  "type": "FeatureCollection",
  "generator": "smartcity",
  "copyright": "Smartcity",
  "timestamp": "2021-05-27T09:28:58Z",
  "features": [
    {
      "type": "Feature",
      "properties": {
        "Building name": "Landmark Plus",
        "height": 1.84,
        "idb": "7"
      },
      "geometry": {
        "type": "Polygon",
        "coordinates": [
          [
            [106.6955632890375, 10.777169364053, 11.6],
            [106.6954739194281, 10.7772503945845, 11.6],
            [106.6954808259733, 10.7772580259263, 11.6],
            [106.6955701955052, 10.777176995465, 11.6],
            [106.6955632890375, 10.777169364053, 11.6]
          ]
        ]
      },
      "id": "lct1"
    }
  ]
}
