{
  "type": "FeatureCollection",
  "generator": "smartcity",
  "copyright": "Smartcity",
  "timestamp": "2021-05-27T09:28:58Z",
  "features": [
    {
      "type": "Feature",
      "properties": {
        "Building name": "Landmark Plus",
        "height": 1.84,
        "idb": "7"
      },
      "geometry": {
        "type": "Polygon",
        "coordinates": [
          [
            [106.6955632890375, 10.777169364053, 10.2],
            [106.6954739194281, 10.7772503945845, 10.2],
            [106.6955011949907, 10.7772804896939, 10.2],
            [106.6955905645945, 10.7771994591693, 10.2],
            [106.6955632890375, 10.777169364053, 10.2]
          ]
        ]
      },
      "id": "lct1"
    }
  ]
}
