{
  "type": "FeatureCollection",
  "generator": "smartcity",
  "copyright": "Smartcity",
  "timestamp": "2021-05-27T09:28:58Z",
  "features": [
    {
      "type": "Feature",
      "properties": {
        "Building name": "Landmark Plus",
        "height": 1.84,
        "idb": "7"
      },
      "geometry": {
        "type": "Polygon",
        "coordinates": [
          [
            [106.6954988023141, 10.7772778332775, 7.39161],
            [106.6954933384152, 10.77728278734, 7.39161],
            [106.6955025431095, 10.7772929393151, 7.39161],
            [106.6955080070084, 10.7772879852525, 7.39161],
            [106.6954988023141, 10.7772778332775, 7.39161]
          ]
        ]
      },
      "id": "lct2"
    }
  ]
}
