{
  "type": "FeatureCollection",
  "generator": "smartcity",
  "copyright": "Smartcity",
  "timestamp": "2021-05-27T09:28:58Z",
  "features": [
    {
      "type": "Feature",
      "properties": {
        "Building name": "Landmark Plus",
        "height": 1.84,
        "idb": "7"
      },
      "geometry": {
        "type": "Polygon",
        "coordinates": [
          [
            [106.695568796908, 10.7771644444464, 8.2],
            [106.6955633330953, 10.7771693984308, 8.2],
            [106.695573189007, 10.7771802686418, 8.2],
            [106.6955786528197, 10.7771753146574, 8.2],
            [106.695568796908, 10.7771644444464, 8.2]
          ]
        ]
      },
      "id": "lct1"
    }
  ]
}
