{
  "type": "FeatureCollection",
  "generator": "smartcity",
  "copyright": "Smartcity",
  "timestamp": "2021-05-27T09:28:58Z",
  "features": [
    {
      "type": "Feature",
      "properties": {
        "Building name": "Landmark Plus",
        "height": 0.381,
        "idb": "7"
      },
      "geometry": {
        "type": "Polygon",
        "coordinates": [
          [
            [106.6951294894653,10.7769873149731, 0],
            [106.6953223856141,10.776809494324, 0],
            [106.695177804899,10.7766526561239, 0],
            [106.6949849087501,10.7768304771258, 0],
			      [106.6951294894653,10.7769873149731, 0]
          ]
        ]
      },
      "id": "pp7"
    }
  ]
}
