{
  "type": "FeatureCollection",
  "generator": "smartcity",
  "copyright": "Smartcity",
  "timestamp": "2021-05-27T09:28:58Z",
  "features": [
    {
      "type": "Feature",
      "properties": {
        "Building name": "Landmark Plus",
        "height": 2,
        "idb": "7"
      },
      "geometry": {
        "type": "Polygon",
        "coordinates": [
          [
            [106.6953206597324,10.7768110852845, 0],
            [106.695176790445,10.7766542471556, 0],
            [106.695173767702,10.7766563778587, 0],
            [106.6952071400368, 10.7766925794747, 0],
            [106.6952068348523, 10.776692860806, 0],
            [106.6951734624814, 10.7766566592253, 0],
            [106.6951500902046, 10.776678204878, 0],
            [106.6951834625968,10.7767144064844, 0],
			      [106.6951831535353,10.7767146897421, 0],
            [106.6951497829686,10.7766784881024, 0],
            [106.6951456854134,10.7766822654196, 0],
            [106.6951790582753,10.7767184675355, 0],
            [106.6950503917463,10.7768370785666, 0],
            [106.6950170188844,10.7768008764506, 0],
            [106.6950129174134,10.7768046571422, 0],
            [106.695062898948,10.7768408589173, 0],
            [106.6950460013082,10.7768411249503, 0],
            [106.6950126287908,10.776804923208, 0],
            [106.6949892323071,10.7768264911757, 0],
            [106.6950226048459,10.7768626929412, 0],
            [106.6950222835959,10.776862989885, 0],
            [106.6949889110926,10.7768267872862, 0],
            [106.694986625703,10.7768288940648, 0],
            [106.695132063908,10.7769857321936, 0],
            [106.6953206597324,10.7768110852845, 0]
          ]
        ]
      },
      "id": "pp7"
    }
  ]
}
