{
  "type": "FeatureCollection",
  "generator": "smartcity",
  "copyright": "Smartcity",
  "timestamp": "2021-05-27T09:28:58Z",
  "features": [
    {
      "type": "Feature",
      "properties": {
        "Building name": "Landmark Plus",
        "height": 0.381,
        "idb": "7"
      },
      "geometry": {
        "type": "Polygon",
        "coordinates": [
          [
            [106.6951294894653,10.7769873149731, 0],
            [106.6953223856141,10.776809494324, 0],
            [106.695177804899,10.7766526561239, 0],
            [106.6951456854134, 10.7766822654196, 0],
            [106.6951381655466, 10.7766741067231, 0],
            [106.6951123778194, 10.7766978790975, 0],
            [106.695153270695, 10.7767422388401, 0],
            [106.6951274404169, 10.7767660504401, 0],
            [106.6950865475412, 10.7767216906975, 0],
            [106.695060991209, 10.7767452497609, 0],
            [106.6951018840846, 10.7767896095035, 0],
            [106.6950761633919, 10.7768133200824, 0],
            [106.6950352705163, 10.7767689603398, 0],
            [106.6950094983611, 10.7767927183592, 0],
            [106.6950170188844,10.7768008764506, 0],
            [106.6949849087501, 10.7768304771258, 0],
            [106.6951294894653,10.7769873149731, 0]



          ]
        ]
      },
      "id": "pp7"
    }
  ]
}
